{"type":"FeatureCollection","name":"Caloocan DENR-MGB Detailed Rain-induced Landslide Susceptibility","source":{"agency":"DENR-MGB","service":"https://controlmap.mgb.gov.ph/arcgis/rest/services/GeospatialDataInventory/GDI_Detailed_Rain_induced_Landslide_Susceptibility/FeatureServer/0","layer_name":"Detailed Rain-induced Landslide Susceptibility","classification_field":"LndslideSusc","source_spatial_reference":{"wkid":102100,"latest_wkid":3857},"output_spatial_reference":"EPSG:4326"},"features":[{"type":"Feature","properties":{"source_object_id":22,"mgb_landslide_code":"LL","mgb_landslide_label":"Low Susceptibility to Landslide","source_agency":"DENR-MGB","source_service":"https://controlmap.mgb.gov.ph/arcgis/rest/services/GeospatialDataInventory/GDI_Detailed_Rain_induced_Landslide_Susceptibility/FeatureServer/0"},"geometry":{"type":"MultiPolygon","coordinates":[[[[121.04942801264971,14.782683862202177],[121.04947225400008,14.782797465000044],[121.04958046779547,14.782954259775511],[121.04951190900033,14.782928776000062],[121.04946005200009,14.782886120000057],[121.04943318300002,14.782780844000058],[121.04942801264971,14.782683862202177]]],[[[121.05492933100004,14.782396732000052],[121.05493507900019,14.78230369500011],[121.05494581911297,14.782223343546894],[121.05497953400004,14.782480538000016],[121.05511002769605,14.782609727106054],[121.05503059400019,14.782581908000111],[121.05498326600002,14.782536250000078],[121.05494596900019,14.782469727000148],[121.05492933100004,14.782396732000052]]],[[[121.05863702284127,14.780685857440103],[121.05878886800008,14.780771987000037],[121.05904424200003,14.780793263000021],[121.05916282489211,14.780770012428183],[121.05914051100012,14.780785165000054],[121.05906723600003,14.780814530999976],[121.0588876160001,14.780849809000074],[121.05882305600005,14.780876365000154],[121.05877649500007,14.780882021000082],[121.05872934000013,14.780861466000033],[121.05869875600013,14.780814798999984],[121.05863702284127,14.780685857440103]]],[[[121.05997412457717,14.777221773090119],[121.06007608700008,14.77722263000004],[121.06023045500001,14.777549103000013],[121.060383806,14.777990333000048],[121.06059750609047,14.778372350743636],[121.06045828700007,14.778259882999976],[121.06031208100012,14.778064638000103],[121.06017691900013,14.77777308400016],[121.06007091400011,14.777490520000015],[121.05997412457717,14.777221773090119]]],[[[121.06123404754244,14.778997706784782],[121.06147424200003,14.779166302000021],[121.06147675500006,14.779167493000045],[121.06150320500001,14.77921249800005],[121.06171807300007,14.779367328000035],[121.06184507600005,14.779341961],[121.06188534300009,14.779361036000012],[121.06196025229643,14.779355043547083],[121.06176033300005,14.779399764000061],[121.06161036600008,14.779321996000021],[121.0614018660001,14.779166082000131],[121.06123404754244,14.778997706784782]]],[[[121.06518780100009,14.77694580300016],[121.06519579400015,14.776864776000139],[121.06521975940059,14.776791501710019],[121.06520942400005,14.776940553000031],[121.06521067400001,14.776944951000019],[121.06519924100007,14.776967293000041],[121.06519771553086,14.777139573866545],[121.06518780100009,14.77694580300016]]],[[[121.06521082524198,14.777262818175247],[121.06521816100008,14.777277407000042],[121.06521823700007,14.777281042000027],[121.06524429800004,14.77732938500003],[121.065293462,14.777427154999998],[121.06539188099998,14.77748144200001],[121.06539740400001,14.777485875000025],[121.065402823,14.777487477000022],[121.065469527,14.777524270000015],[121.06552999589925,14.777533193595628],[121.06549843300002,14.777533221999988],[121.0654289490002,14.777514530000076],[121.0653262840001,14.77746654300006],[121.06523747100016,14.777369433000047],[121.06521082524198,14.777262818175247]]],[[[121.07080217300918,14.77596815757933],[121.07092826500002,14.776005390000023],[121.07099684500008,14.776051733000031],[121.07101925554386,14.776053242673981],[121.07096051400015,14.776060869000105],[121.07086232200004,14.776025168000103],[121.07080217300918,14.77596815757933]]],[[[121.02353015900019,14.773981307000042],[121.02353639000023,14.773813576000066],[121.02360413400015,14.773658983000189],[121.02361818507318,14.773635272516508],[121.02357091099998,14.773821195000039],[121.02356991700003,14.773931170000026],[121.02357459699999,14.773947677000024],[121.02357376700002,14.773955380000018],[121.02357128000006,14.773978620000037],[121.02356879400008,14.774001861000045],[121.02357293199998,14.774025021],[121.02357706999999,14.774048182000001],[121.023581208,14.774071342000013],[121.023585346,14.774094501000036],[121.02360392500009,14.774114553000004],[121.02362250500005,14.774134605000029],[121.02364108300003,14.774154657000054],[121.02365966299999,14.774174710000011],[121.02366223500007,14.774176203000025],[121.02369500100008,14.774228719000007],[121.02369576199999,14.774228997000023],[121.02369533800004,14.77427584100002],[121.02385394800001,14.77428685000001],[121.02389582700005,14.77430216600004],[121.02403038568181,14.77432429803687],[121.02387844400016,14.774326453000128],[121.02365651000002,14.774268404000054],[121.02354489900017,14.774142134999977],[121.02353015900019,14.773981307000042]]],[[[121.02375756787825,14.772844020332217],[121.02377124899999,14.772861750000004],[121.02381926600003,14.77298649100004],[121.02382027607679,14.772993092417675],[121.02375756787825,14.772844020332217]]],[[[121.02501367034273,14.774349990318388],[121.02515347899998,14.774351187000036],[121.02541097599999,14.774340654000014],[121.025443537,14.774339322000003],[121.025865931,14.77436684600002],[121.02630785100007,14.77440888000001],[121.02645014200004,14.774434008000014],[121.026671362,14.774426335000044],[121.02678851226962,14.774455200685685],[121.02670983100018,14.774441067000055],[121.02650254400021,14.774437568],[121.0260630470001,14.774415347000058],[121.02579562200015,14.774414788000115],[121.02558526400014,14.774393537000037],[121.02539521200003,14.774364016000163],[121.02518037800019,14.77435873900015],[121.02502731900006,14.774352674000113],[121.02501367034273,14.774349990318388]]]]}},{"type":"Feature","properties":{"source_object_id":341,"mgb_landslide_code":"LL","mgb_landslide_label":"Low Susceptibility to Landslide","source_agency":"DENR-MGB","source_service":"https://controlmap.mgb.gov.ph/arcgis/rest/services/GeospatialDataInventory/GDI_Detailed_Rain_induced_Landslide_Susceptibility/FeatureServer/0"},"geometry":{"type":"MultiPolygon","coordinates":[[[[121.09965489812112,14.765143711593122],[121.09965684027877,14.76509494722039],[121.09973177672913,14.765128838810554],[121.09972935145983,14.765216099904526],[121.09965489812112,14.765143711593122]]],[[[121.01122165706906,14.757822805824437],[121.01337545836122,14.758704363977806],[121.01411327165353,14.759015027982732],[121.01444664184535,14.75915553282997],[121.01477533540782,14.759288082260397],[121.01494028316195,14.759323118528782],[121.01661257611511,14.760010180235264],[121.01732263236345,14.760286965943092],[121.0176395712149,14.760441785226265],[121.01730932100008,14.76032387400005],[121.01692736300004,14.760274970000069],[121.015884432,14.759794748000104],[121.01503210800001,14.759451674000161],[121.01449704100003,14.75928038100011],[121.01401277600007,14.759075791000043],[121.01235124800007,14.758329680000031],[121.01159684700008,14.757990648999964],[121.01122719700004,14.757825707],[121.01122165706906,14.757822805824437]]]]}},{"type":"Feature","properties":{"source_object_id":59091,"mgb_landslide_code":"HL","mgb_landslide_label":"High Susceptibility to Landslide","source_agency":"DENR-MGB","source_service":"https://controlmap.mgb.gov.ph/arcgis/rest/services/GeospatialDataInventory/GDI_Detailed_Rain_induced_Landslide_Susceptibility/FeatureServer/0"},"geometry":{"type":"MultiPolygon","coordinates":[[[[121.04120646870739,14.774079650747053],[121.04120650464002,14.77407572981461],[121.04120679030429,14.774043788197355],[121.04122890592828,14.77397523526726],[121.04123245876524,14.773921468776068],[121.04123342355584,14.7738138836368],[121.0412588243188,14.773721449737776],[121.0412716729223,14.773658794619765],[121.04131229473946,14.773581433782427],[121.04133446516066,14.773506903744401],[121.04135332079846,14.773459244393603],[121.04135679368538,14.773414443656218],[121.04136576156685,14.773382422897452],[121.04135809175096,14.773351425366966],[121.04193011107611,14.773247852097874],[121.04223766997488,14.773202641328508],[121.04233520096358,14.773287151904835],[121.04238316381326,14.77341906210129],[121.04235741630058,14.773550346812709],[121.04219802911804,14.773513130868459],[121.04198928759546,14.77349940496302],[121.0418657926001,14.773570087025972],[121.04179068895077,14.773724861666857],[121.04180083182862,14.773964044882318],[121.04193425590285,14.774156454624357],[121.04217878271304,14.774290032034026],[121.04246005780493,14.774435876804871],[121.04263065955548,14.77459273637095],[121.04280019141252,14.774869136086444],[121.04294483095308,14.775181188482698],[121.04294215397353,14.775480037553788],[121.0428914063465,14.775658928650433],[121.0427308405743,14.775753205782571],[121.04252198945724,14.77575143468828],[121.0423383522536,14.775678148374993],[121.0422165703455,14.775557566225407],[121.04202321876036,14.77519728037961],[121.041829117082,14.774920672614593],[121.04153727061583,14.774583460442937],[121.04125749481219,14.774270259747427],[121.04121384297756,14.774115027734572],[121.0412123167399,14.774112575632126],[121.0412108821304,14.774104498373482],[121.04120646870739,14.774079650747053]]],[[[121.09413256869236,14.766251961492426],[121.09418270995658,14.766137605790762],[121.09427044571544,14.766009098012793],[121.0942806820181,14.765994102538242],[121.09433204948269,14.765918863686826],[121.09445863019107,14.765838249610061],[121.094478873726,14.765749984441005],[121.09447280919949,14.76570433952441],[121.0944531549594,14.765556424981119],[121.09443141932279,14.765524110329443],[121.09441434145091,14.765498720552813],[121.0944151750875,14.765403086482717],[121.09449471731264,14.765298536536386],[121.09455393515448,14.76527033317236],[121.09468161809569,14.765280950695233],[121.09480234987328,14.765326145739555],[121.09488415944621,14.765320701035412],[121.09501981673219,14.76526204363416],[121.09506999842061,14.765142906353011],[121.09499732920568,14.765022754420862],[121.09490029768025,14.764878492098573],[121.09457089175379,14.764612760643356],[121.09448677171396,14.764396873141596],[121.0944880212705,14.764253421727933],[121.09464856009325,14.76415910486059],[121.09485803104783,14.76408910163177],[121.09485644821632,14.764075860709804],[121.09499825536876,14.76417276099485],[121.09521057847434,14.764339494151068],[121.09534269460148,14.764405140996404],[121.09543758184836,14.764513520400035],[121.09551797567637,14.764593088240142],[121.09559124945746,14.76464390361674],[121.09564147246839,14.764802127086686],[121.09563997318017,14.764974268858403],[121.0956088025381,14.765167685509144],[121.09558527476248,14.765291286774639],[121.09559316017409,14.765288698194412],[121.09559461095326,14.76528867647812],[121.09559293559525,14.765296670673958],[121.09554033833707,14.7654110077077],[121.09544307774125,14.765575186952043],[121.09529453052923,14.765703077376779],[121.09515310605913,14.765859719135001],[121.09502710925564,14.76593758393133],[121.09487175371211,14.766000859753046],[121.09474606952239,14.76604286236605],[121.09466467497114,14.766078055639897],[121.09461994785312,14.766135071076778],[121.0945749710035,14.766220777054354],[121.09451531478379,14.766299188968986],[121.09450072883854,14.766307541878874],[121.09440650724332,14.766397683966936],[121.0942885692263,14.766396711082686],[121.0941762151371,14.766362053815508],[121.09416113601674,14.766357403080505],[121.09413256869236,14.766251961492426]]],[[[121.04063873165121,14.767678147887283],[121.04063942874389,14.767600447019147],[121.04065246329864,14.767516874102146],[121.04075768745946,14.767428104933412],[121.04090526628758,14.76741142525875],[121.0411071105454,14.76750877661955],[121.0412164957026,14.767641208034085],[121.04123598914428,14.767706894708464],[121.04131861438749,14.767899104123165],[121.04137538701511,14.76816334097537],[121.04138317091706,14.76814614625382],[121.04143546634133,14.76856956598491],[121.0414330031608,14.768844507103129],[121.04142380710725,14.76918514191885],[121.04133631299523,14.76935176786277],[121.041280065882,14.769458883542853],[121.0411566804811,14.76951761103951],[121.04105220461695,14.769522702104421],[121.04095905291523,14.76949800162185],[121.04094799734901,14.769497907809354],[121.04093727775275,14.769492226941187],[121.04093522240734,14.76949113767379],[121.04089740513054,14.769471098279743],[121.04085628834166,14.769449310322681],[121.0408202910516,14.769353366150883],[121.04081484456603,14.76927561289489],[121.04082266170565,14.769258770927246],[121.04081821414665,14.769254203643193],[121.04084053907813,14.769150305288717],[121.04092819488689,14.768965748798676],[121.04094599051268,14.768926298804702],[121.04096701288698,14.76887969558015],[121.04096886790802,14.768878893828472],[121.04099117307655,14.768792938731508],[121.04101724218609,14.768625792045167],[121.04100111832504,14.768368626474956],[121.04099527119088,14.768195869788665],[121.04095422896214,14.76811717711894],[121.04085728816658,14.767966918888552],[121.04071735130655,14.767816295725048],[121.04063873165121,14.767678147887283]]]]}},{"type":"Feature","properties":{"source_object_id":59092,"mgb_landslide_code":"ML","mgb_landslide_label":"Moderate Susceptibility to Landslide","source_agency":"DENR-MGB","source_service":"https://controlmap.mgb.gov.ph/arcgis/rest/services/GeospatialDataInventory/GDI_Detailed_Rain_induced_Landslide_Susceptibility/FeatureServer/0"},"geometry":{"type":"MultiPolygon","coordinates":[[[[121.07651581023467,14.741816854904162],[121.07693032700001,14.74194126600014],[121.07703327799156,14.741966839151821],[121.07696618851597,14.741976493427234],[121.07683792436477,14.741995185325933],[121.07673324368471,14.741990912842455],[121.07662559856422,14.74193642173011],[121.07653121078067,14.741851796460027],[121.07651581023467,14.741816854904162]]],[[[121.07740917113878,14.746124761169014],[121.07740956460088,14.74607993308204],[121.07741914513336,14.746038169858089],[121.07745022235063,14.745996585584116],[121.07749040758652,14.745967031451277],[121.07757670963422,14.745931884441143],[121.07780636483491,14.745893291179227],[121.0780112939074,14.745860225631109],[121.07820885320133,14.745832903243974],[121.07828994502034,14.74583574746197],[121.07840641788515,14.745824232461844],[121.078465387792,14.745806997750238],[121.07855531005022,14.745758186475049],[121.07861574061769,14.745699339628104],[121.07862598680182,14.745660232905887],[121.07862799902807,14.745646156881847],[121.07863303523337,14.745610928847299],[121.07886259500003,14.745701059000112],[121.07890547600005,14.745717894000165],[121.07958387100018,14.745930951000105],[121.07963194000001,14.745945034000101],[121.08008521600004,14.746076940000023],[121.08028556500017,14.74615118500003],[121.08045146800009,14.746227727000132],[121.08047386200019,14.746238058000017],[121.08050181600004,14.746255922999978],[121.08060654300004,14.746322849000023],[121.08066853900004,14.746362467000097],[121.08078514300007,14.746476378000011],[121.08120926800007,14.746901344000037],[121.08144611000012,14.747143012000095],[121.08150983240347,14.747210366680385],[121.08138854076077,14.74729269455278],[121.0813380141193,14.747326989994828],[121.08128935327869,14.747311223543862],[121.08116255248308,14.747301219330962],[121.08103278904365,14.747252477888669],[121.08092808949898,14.747200857486368],[121.08087942147182,14.74716787292816],[121.08075850733627,14.747121997375297],[121.08069510244688,14.747103364989952],[121.0806449692675,14.747096209312652],[121.08059337183423,14.74711631071029],[121.08052998311449,14.74714502810634],[121.08049313511985,14.747182345860361],[121.08032077267136,14.747598496110951],[121.08028541677841,14.747691770743437],[121.08017637567598,14.747882633955024],[121.08013362934317,14.747919953320022],[121.08010414843218,14.747938616040644],[121.08003337915407,14.747941507142038],[121.07992868679594,14.747914280575399],[121.07982841414896,14.74787557212514],[121.07975689387932,14.747812972976483],[121.07957627681164,14.74767152519119],[121.07945790041677,14.747498692991801],[121.0793821481838,14.74738150147602],[121.07930644805313,14.747258333082364],[121.07923305838935,14.747221858002908],[121.07915376320092,14.747158435116363],[121.0791211534578,14.747092426020746],[121.07906585316893,14.746980488330257],[121.0789504717572,14.746875800957973],[121.07872564769609,14.746755422623204],[121.07867532317555,14.74672847737519],[121.07859893224042,14.746687575182516],[121.07847393975347,14.746581929464808],[121.07838574585381,14.746482567192444],[121.07829710728811,14.746434009736843],[121.07793625763173,14.746345216326672],[121.07784927016951,14.746346678393767],[121.07767528177031,14.746318035602894],[121.07759712834061,14.746282189324214],[121.07754764823645,14.746250451250182],[121.07744240161779,14.746187802116678],[121.07742119239391,14.746154748775465],[121.07740917113878,14.746124761169014]]],[[[121.08379675784919,14.750433240892011],[121.08385396885465,14.750254018040575],[121.08386205462386,14.750245197264475],[121.08393741200007,14.750349213000106],[121.08403994900027,14.750506760000064],[121.08442858100011,14.751103892000117],[121.084573986,14.751328984000054],[121.08464699600017,14.751442006],[121.08466199700001,14.75148662200013],[121.08468413000003,14.751552448000098],[121.08474779300002,14.751737576000153],[121.08478153300018,14.751849308000146],[121.08482311191077,14.752342936526013],[121.08480740386632,14.752251415533623],[121.08468833397204,14.752154995542499],[121.08458577331605,14.752082414480535],[121.08447621837725,14.751966736978536],[121.08432999959845,14.751829237550366],[121.08424999024938,14.751706631988862],[121.08415574260304,14.7515265232373],[121.08412757862224,14.751375655004706],[121.08414388933282,14.751196463334207],[121.08408624354276,14.751045350765814],[121.08396963323571,14.750893750747],[121.08388225410803,14.750771083848727],[121.08382442057004,14.750641488053763],[121.08379675784919,14.750433240892011]]],[[[121.08521723865512,14.757142992418231],[121.08521792945956,14.75706409508214],[121.08523477287116,14.756992503351924],[121.08527088065401,14.756909594376017],[121.08535943387976,14.75677703654661],[121.08535015787615,14.756743453178478],[121.08533243591224,14.756663109336067],[121.0853707086349,14.756690720504322],[121.08539145702302,14.756758917512258],[121.08539669171178,14.756755955540555],[121.08560934850361,14.757552638067573],[121.08546288027463,14.757482163595256],[121.0854017705808,14.757445790996796],[121.08532858663122,14.757385408873525],[121.08521723865512,14.757142992418231]]],[[[121.08622685844286,14.758598200751566],[121.08656501200005,14.758500572000173],[121.0865893880001,14.758487880000189],[121.08662827400008,14.758481023000058],[121.08673592700006,14.758480101000146],[121.08765738000022,14.758328206000101],[121.08783808600003,14.758333400000026],[121.08895112500022,14.758365389000062],[121.08972931900007,14.758835195000017],[121.09102126100004,14.758445970000082],[121.09185156900003,14.758851082000035],[121.09304510600009,14.759429212999976],[121.09359293700004,14.759911052000177],[121.0954829210001,14.761407840000174],[121.09584260100019,14.761343557000089],[121.09601146000023,14.761322715000176],[121.09660080300023,14.76156883900012],[121.0973230830001,14.761922454000114],[121.09762136900008,14.76277654800009],[121.09801978300004,14.762209681000172],[121.09850337181666,14.762370177916782],[121.09839410992491,14.762407138461134],[121.09828198490611,14.762585543444091],[121.09824945331641,14.762794492142786],[121.09812452371149,14.763032566815863],[121.09791479494045,14.763132459229938],[121.09757529195019,14.763287071915425],[121.09745654455108,14.763379344338478],[121.09740394908951,14.763493680643261],[121.09735191956655,14.763540345828606],[121.09728507592628,14.763600297994536],[121.09714415361441,14.763699560371172],[121.09707031748795,14.763713298188067],[121.09693720153585,14.76376241293957],[121.09684800062476,14.763847755885338],[121.0968471894461,14.763940999228367],[121.09686111962117,14.764034364143251],[121.09683113565362,14.764091501727975],[121.0967568018605,14.76416262030978],[121.09656459203413,14.764225594356066],[121.09634902062041,14.764431838225759],[121.09626650317509,14.764596139821156],[121.09620428765514,14.764968628698652],[121.09620135196079,14.765305740259416],[121.0961620605486,14.76558516773965],[121.09617430458587,14.765872193800126],[121.09630473637188,14.766131500066034],[121.09657571856721,14.76633458199014],[121.09656398836624,14.76641050084795],[121.0965298146562,14.766455051121818],[121.09647421792326,14.766490458884537],[121.09637511128956,14.766510330904707],[121.09639426696465,14.766480193222497],[121.09639719457417,14.766427103289866],[121.09638390399954,14.766379761179765],[121.0963337366842,14.76629943045288],[121.09628505877559,14.766252100476011],[121.0962467105944,14.766226288621798],[121.0960225557782,14.766161808920149],[121.09587655888325,14.76611451626518],[121.09583968753242,14.766095878557433],[121.09578180997701,14.765979671684066],[121.09578512745536,14.765975421387795],[121.09578018492465,14.765906551461637],[121.09578997925621,14.765819502428894],[121.09582039980499,14.765689400491043],[121.0958528101221,14.765618604677792],[121.09586064522803,14.76555068667903],[121.09586159384894,14.765462684594286],[121.09585468939768,14.765406251845619],[121.0958359945583,14.765362257293342],[121.0958153404933,14.7653383520222],[121.0957642119806,14.765305849709465],[121.09571702258042,14.765292475957967],[121.09566098836794,14.765287715750029],[121.09559461095326,14.76528867647812],[121.09559316017409,14.765288698194412],[121.09558527476248,14.765291286774639],[121.0956088025381,14.765167685509144],[121.09563997318017,14.764974268858403],[121.09564147246839,14.764802127086686],[121.09559124945746,14.76464390361674],[121.09551797567637,14.764593088240142],[121.09543758184836,14.764513520400035],[121.09534269460148,14.764405140996404],[121.09521057847434,14.764339494151068],[121.09499825536876,14.76417276099485],[121.09485644821632,14.764075860709804],[121.0948465793246,14.763993366177475],[121.09467740140376,14.76366917994384],[121.09461753857155,14.763489358199719],[121.09439911590518,14.763176721780562],[121.09429011343028,14.762996494833484],[121.09418090344455,14.762840176760095],[121.09409678340472,14.762624289235488],[121.09404889421694,14.762480431855671],[121.09385358430447,14.76233535825261],[121.09359622506042,14.762261503652736],[121.0932766080756,14.762282774607058],[121.0931771861332,14.762301272786912],[121.09308712283945,14.762334619020509],[121.09280136156103,14.762418336390416],[121.09250702316832,14.76235852114725],[121.0923411151151,14.762223252934842],[121.09218578652103,14.762001994715547],[121.09213007300711,14.761628533930551],[121.0921810479079,14.76141854344888],[121.09231022923903,14.761257020055973],[121.09254839507872,14.761076543947333],[121.09264925791882,14.760962526910165],[121.09284935944498,14.760557702749587],[121.09281636252796,14.760115089748593],[121.0926340701023,14.759886436111302],[121.09237754898642,14.759716945845954],[121.09216860264793,14.75972717534305],[121.09168782700284,14.759914486418678],[121.09128190707206,14.759970908431333],[121.09097478655113,14.759968371039424],[121.09094883152761,14.759961623192563],[121.09093567929354,14.759964070242622],[121.09072946024028,14.759943238609768],[121.0906022004056,14.759884801269326],[121.0905682764272,14.759862185375002],[121.08993297797679,14.759684791030967],[121.08938214721424,14.759453087025431],[121.08881924129763,14.759197372585712],[121.08836855382465,14.759116775127753],[121.08829917693524,14.759119752948205],[121.08817183445554,14.759070878639996],[121.08810395865099,14.758965111239368],[121.08799671777236,14.7588517663197],[121.08789271621866,14.758803084797554],[121.08775154597176,14.758789961693765],[121.08754858600636,14.758818169373066],[121.08733323737486,14.758858229275003],[121.0870688551019,14.758885927900943],[121.08691271712574,14.758863283236453],[121.08671915892812,14.758835211076567],[121.08640642124173,14.758772845280498],[121.08626309952972,14.758628574468242],[121.08622685844286,14.758598200751566]]],[[[121.09945426658894,14.763664632521497],[121.09947336926344,14.763587082233872],[121.09957248128707,14.763492255175038],[121.09971026578363,14.763188532075153],[121.09971953729571,14.763159764677322],[121.09973368935468,14.763115852193138],[121.09979066783399,14.76300993917302],[121.09976210231153,14.76403772554775],[121.09964265947367,14.76389931066295],[121.09954552194706,14.763767002924082],[121.09947222570811,14.763718579624912],[121.09945426658894,14.763664632521497]]],[[[121.09959676454581,14.764939034579179],[121.09960420618962,14.764789655834766],[121.0996237256824,14.764664287442647],[121.09969259143045,14.764515414066173],[121.09975126973005,14.764427481403763],[121.09973177672913,14.765128838810554],[121.09965684027877,14.76509494722039],[121.09959676454581,14.764939034579179]]],[[[121.03902752144246,14.773096868642993],[121.03906804624155,14.772924686399291],[121.03916387851606,14.772817061678477],[121.03919254106182,14.772787169822015],[121.03921671023453,14.772710268175084],[121.03937619084188,14.772462962828568],[121.03959438264124,14.772244847288027],[121.03981791402664,14.772084665277621],[121.0399900797441,14.771961291111962],[121.04017749975343,14.771886371374299],[121.04045294388078,14.771860019036012],[121.04086572244879,14.771863522199876],[121.041401855875,14.77190722792143],[121.04163551396859,14.771846635264305],[121.0417043698351,14.771812419259101],[121.04174104804815,14.771784986342158],[121.04174119447356,14.771784876895417],[121.04189904374032,14.771719268761272],[121.04205142406366,14.77164108898796],[121.04215071844527,14.771590145821994],[121.04215577326536,14.771587552105045],[121.0423230225033,14.77156984342784],[121.04239164750281,14.77158955341913],[121.04243001814183,14.771695081017425],[121.04240982401423,14.771858906327608],[121.04240997672784,14.771859949546007],[121.04241487254615,14.771893498440004],[121.04242989597094,14.771972049893751],[121.04244141596615,14.772002751420127],[121.042466408894,14.772043680122444],[121.04253018658424,14.772093321114873],[121.04271275119942,14.772286146846824],[121.04279735453287,14.772442277453433],[121.0427715001207,14.772585516730281],[121.0426727905423,14.772632498747777],[121.04247622748004,14.772630831862655],[121.0422182394153,14.772628643804488],[121.04193557373135,14.77263820124939],[121.04148016561156,14.772729975457036],[121.04135613522028,14.7728604258402],[121.04129342383025,14.773003352138076],[121.04126767452097,14.773134637100659],[121.04131595806918,14.773230684705851],[121.04135195715587,14.77332662977155],[121.04135809175096,14.773351425366966],[121.04136576156685,14.773382422897452],[121.04135679368538,14.773414443656218],[121.04135332079846,14.773459244393603],[121.04133446516066,14.773506903744401],[121.04131229473946,14.773581433782427],[121.0412716729223,14.773658794619765],[121.0412588243188,14.773721449737776],[121.04123342355584,14.7738138836368],[121.04123245876524,14.773921468776068],[121.04122890592828,14.77397523526726],[121.04120679030429,14.774043788197355],[121.04120650464002,14.77407572981461],[121.0412030946352,14.774076803423933],[121.04119778289692,14.774078476378278],[121.04109982341181,14.774041780825547],[121.04092847246633,14.773968596432232],[121.04073287329636,14.773859342703382],[121.0404997757515,14.77382149967064],[121.04022835966985,14.773788688530308],[121.04012351998803,14.77368670851422],[121.03989740235289,14.77358152064424],[121.03973690125937,14.773488812162944],[121.03973026450608,14.773484978950286],[121.03963215500232,14.773484978950286],[121.03937777457173,14.773373020099388],[121.03918607139516,14.773326417828494],[121.03904228525415,14.77321165151796],[121.03902752144246,14.773096868642993]]],[[[121.07278172093821,14.743852375051379],[121.07279291215002,14.7438035885313],[121.07281648214644,14.743735858318885],[121.07283415829629,14.743686494931108],[121.07285831668923,14.743613025801483],[121.07289486644316,14.743566528351952],[121.07292552414721,14.743534952336011],[121.0729603015251,14.743476401996594],[121.07297384991622,14.743424170844577],[121.07298149188433,14.743344393714773],[121.07299090982178,14.743281258988658],[121.07301508258777,14.743264033631851],[121.07306933723767,14.743253114450733],[121.07311886944413,14.74322956901433],[121.07316073452961,14.743208320522001],[121.07320847819032,14.743122219757693],[121.07323675535886,14.743022921061781],[121.07323496681312,14.742960363954712],[121.0732248931055,14.742799093562757],[121.0732177793468,14.742681440821649],[121.0731970929424,14.742528782062362],[121.07316640110244,14.742447866552089],[121.07313217349348,14.742376709597275],[121.07307316675573,14.742269977596433],[121.07302772996863,14.742180457087251],[121.07301152615756,14.742121657054204],[121.07300352935489,14.742092648835127],[121.07300822754381,14.742030088854555],[121.0730147088886,14.742003115221857],[121.07304006024422,14.741987610746056],[121.07308370309568,14.741998499584632],[121.07318339093936,14.742064476343716],[121.07328602166398,14.742106342841689],[121.07336149901245,14.742082788593851],[121.07340335601312,14.742027680696282],[121.0734587721847,14.741967402019329],[121.07349944071422,14.74188933491377],[121.07350650147238,14.741831366190784],[121.07351709081291,14.741742404973149],[121.07353770804701,14.741667215940428],[121.07356894336775,14.741596041355582],[121.07364205904537,14.741561582555281],[121.0737340492254,14.741529989742398],[121.07383724858356,14.74150815033689],[121.07394810697784,14.741466796284199],[121.07403065496591,14.7414156914142],[121.07408312645995,14.74136230172864],[121.07415799834395,14.741285948443801],[121.0742181270775,14.741199841706857],[121.07427766382126,14.741109145342197],[121.07432010921845,14.74105690493483],[121.07438378899231,14.741022451261685],[121.0744268407523,14.7410230107354],[121.07444631083774,14.741043666086176],[121.07445870399542,14.741078674017029],[121.07445813356523,14.741145822995186],[121.07444930222766,14.74118599995623],[121.07440923107778,14.74128587460029],[121.07436739563668,14.74139952317427],[121.07436386705425,14.741436829750704],[121.07437037175522,14.74149307324895],[121.07437745946284,14.741530376334342],[121.0743863159532,14.74156595755917],[121.07441286745804,14.741604402163894],[121.07444354761995,14.7416434210026],[121.07447480989016,14.741664071950789],[121.07452435826627,14.741696771525712],[121.07455798759725,14.741736363719639],[121.0745680181857,14.741764481522546],[121.07457687377779,14.741782846791345],[121.07458513827842,14.74182072319864],[121.07455447967608,14.741842540854169],[121.07448549085889,14.741875274283322],[121.07446132078785,14.741901109007847],[121.07445661002251,14.741932675704534],[121.07445898067655,14.741969404474725],[121.07447078453937,14.7420021161662],[121.07449674585108,14.742039988191669],[121.0745692991833,14.742088178279973],[121.07464127220388,14.742120519000085],[121.07464715257571,14.74212316866803],[121.07468018722199,14.742153002189303],[121.07471322725814,14.74219890658906],[121.0747262142022,14.74223678205528],[121.07473566088575,14.742271214686458],[121.07472623576176,14.742307375241714],[121.07471268198074,14.742343536659725],[121.07468261716481,14.742381424263158],[121.0746372190053,14.742419891311211],[121.07458769847695,14.742478445409688],[121.07450163897441,14.742621378642344],[121.07445977568555,14.742649513705803],[121.0743660221126,14.742696602963969],[121.07426930679418,14.742709257918047],[121.07419735263822,14.742693783029711],[121.0741596108199,14.742699533228347],[121.07408472725781,14.742743746942661],[121.07404285318917,14.742742037260173],[121.07398446179735,14.742719097281157],[121.07394553599947,14.74270992598006],[121.07389246532911,14.74273232560304],[121.07381404869301,14.742796627207367],[121.07374743412312,14.74288101407532],[121.07362009523668,14.743037732209409],[121.07356527734309,14.743127281903257],[121.07355232453502,14.743201895326408],[121.0735328778057,14.743248387641366],[121.07343267253242,14.743418299041734],[121.07337019021283,14.74351703287761],[121.07335665260152,14.743605421740842],[121.07335431159187,14.743665110091566],[121.07336021801487,14.743695527193074],[121.07336553424472,14.743720777910218],[121.07338146945952,14.74375865224295],[121.07339209563104,14.743797676776758],[121.07339152160758,14.743851051096652],[121.0733891725131,14.743880896543518],[121.07337974649084,14.743915909230646],[121.07335911578204,14.743950923649587],[121.07331194704307,14.743986520984878],[121.07323647418615,14.744034753210405],[121.0731533297167,14.744070360088086],[121.07309022576298,14.744068657365862],[121.07300352935489,14.744054332780468],[121.07296166067614,14.744068693852764],[121.0728956192314,14.744105443981042],[121.07285079958692,14.74410947491451],[121.07283841451408,14.744106034721302],[121.07282897501709,14.744094557854053],[121.0728254257734,14.744060698008166],[121.07281006907363,14.743984944228737],[121.07278645505974,14.743904027522158],[121.07278172093821,14.743852375051379]]],[[[121.09514716999169,14.76734730118357],[121.09516482458199,14.76724972650913],[121.09521639147255,14.767146401369905],[121.09532103532169,14.767035881202576],[121.09550821278587,14.766819150915655],[121.09560108241655,14.766748810640427],[121.09573985236503,14.766659648530206],[121.0957037634468,14.766785974755745],[121.09573658429403,14.766896830346992],[121.09577575712864,14.76698382769834],[121.0959052591583,14.767139615525515],[121.0960662372572,14.767277232095907],[121.09633141184425,14.767300937365947],[121.0964811601038,14.767313955718892],[121.09649305918806,14.767314990272709],[121.09656693753531,14.767390509212486],[121.09661788997826,14.767476948697826],[121.09661815857453,14.76747740473503],[121.096410360283,14.767462060167546],[121.09632242150488,14.767468806044333],[121.09604523464586,14.76753348080276],[121.09576067351668,14.767592417293727],[121.0955055932985,14.76762264776638],[121.09536255814906,14.767614094250817],[121.09527701966941,14.767571082579462],[121.09518851405433,14.767490766191127],[121.09514866927992,14.767411868266468],[121.09514716999169,14.76734730118357]]],[[[121.07793726374486,14.744904661089423],[121.07796263600733,14.74486468992053],[121.0779879370001,14.744943137000064],[121.0780248640001,14.745028370000114],[121.07803290018468,14.745044204684502],[121.07802577115652,14.745039508309953],[121.07798152733216,14.74500365052723],[121.07794907299758,14.7449520061359],[121.07794002336941,14.744915728740972],[121.07793726374486,14.744904661089423]]],[[[121.07791789606732,14.744290567130472],[121.07791847860568,14.744277625492614],[121.07792350705869,14.744389983199612],[121.0779193998471,14.744382394999839],[121.07791789606732,14.744290567130472]]]]}},{"type":"Feature","properties":{"source_object_id":59094,"mgb_landslide_code":"VHL","mgb_landslide_label":"Very High Susceptibility to Landslide","source_agency":"DENR-MGB","source_service":"https://controlmap.mgb.gov.ph/arcgis/rest/services/GeospatialDataInventory/GDI_Detailed_Rain_induced_Landslide_Susceptibility/FeatureServer/0"},"geometry":{"type":"Polygon","coordinates":[[[121.0957037634468,14.766785974755745],[121.09573985236503,14.766659648530206],[121.09581335701314,14.766612420263328],[121.09591361528707,14.76658512046149],[121.09611856502082,14.766562083970808],[121.09630433931652,14.766524707867564],[121.09637511128956,14.766510330904707],[121.09647421792326,14.766490458884537],[121.0965298146562,14.766455051121818],[121.09656398836624,14.76641050084795],[121.09657571856721,14.76633458199014],[121.09630473637188,14.766131500066034],[121.09617430458587,14.765872193800126],[121.0961620605486,14.76558516773965],[121.09620135196079,14.765305740259416],[121.09620428765514,14.764968628698652],[121.09626650317509,14.764596139821156],[121.09634902062041,14.764431838225759],[121.09656459203413,14.764225594356066],[121.0967568018605,14.76416262030978],[121.09683113565362,14.764091501727975],[121.09686111962117,14.764034364143251],[121.0968471894461,14.763940999228367],[121.09684800062476,14.763847755885338],[121.09693720153585,14.76376241293957],[121.09707031748795,14.763713298188067],[121.09714415361441,14.763699560371172],[121.09728507592628,14.763600297994536],[121.09735191956655,14.763540345828606],[121.09740394908951,14.763493680643261],[121.09745654455108,14.763379344338478],[121.09757529195019,14.763287071915425],[121.09791479494045,14.763132459229938],[121.09812452371149,14.763032566815863],[121.09824945331641,14.762794492142786],[121.09828198490611,14.762585543444091],[121.09839410992491,14.762407138461134],[121.09850337181666,14.762370177916782],[121.09853401200007,14.76238034700009],[121.09919845200011,14.762336460000085],[121.09952975800002,14.762415026000042],[121.09972587200002,14.762563555000156],[121.09979889200008,14.762714034000055],[121.09979066783399,14.76300993917302],[121.09973368935468,14.763115852193138],[121.09971953729571,14.763159764677322],[121.09971026578363,14.763188532075153],[121.09957248128707,14.763492255175038],[121.09947336926344,14.763587082233872],[121.09945426658894,14.763664632521497],[121.09947222570811,14.763718579624912],[121.09954552194706,14.763767002924082],[121.09964265947367,14.76389931066295],[121.09976210231153,14.76403772554775],[121.09975126973005,14.764427481403766],[121.09969259143045,14.764515414066173],[121.0996237256824,14.764664287442647],[121.09960420618962,14.764789655834766],[121.09959676454581,14.764939034579179],[121.09965684027877,14.76509494722039],[121.09965283109766,14.765195590070402],[121.09965691394062,14.765291265058359],[121.09969497915247,14.765435041531097],[121.09969352478002,14.76560240175301],[121.09969202908505,14.765774544628353],[121.09967637234799,14.765879621615532],[121.09964485136295,14.76611368410058],[121.09966259668309,14.766333806288424],[121.09969051183057,14.76708004045844],[121.09970325892445,14.767309685469893],[121.09959725682258,14.767631602594117],[121.09948307286514,14.768046704361842],[121.09941317674952,14.768454997817498],[121.09940114572103,14.768696495130849],[121.09939658100006,14.76871873400006],[121.09939944379198,14.768730657737404],[121.09939531644504,14.768813505450758],[121.09936071783187,14.769401417287852],[121.0993339893589,14.769932008218625],[121.09931587932277,14.770319207773156],[121.09925541102606,14.77049086395426],[121.099135848855,14.770676380722024],[121.0990321518302,14.770732911994747],[121.09895868940288,14.770703614862748],[121.09889309621745,14.770616996854388],[121.09876297075698,14.77032182756419],[121.09868438254267,14.770034255798354],[121.09853183243774,14.76977476656381],[121.09835241821423,14.769213786041739],[121.09816388609063,14.768853577409198],[121.0979154498123,14.768600471253228],[121.09767326041843,14.768476533100493],[121.09700660267978,14.767997614031618],[121.09675148293573,14.767665547372774],[121.09665671965638,14.767542823917141],[121.09661815857453,14.76747740473503],[121.09661788997826,14.767476948697826],[121.09656693753531,14.767390509212486],[121.09649305918806,14.767314990272709],[121.0964811601038,14.767313955718892],[121.09633141184425,14.767300937365947],[121.0960662372572,14.767277232095907],[121.0959052591583,14.767139615525515],[121.09577575712864,14.76698382769834],[121.09573658429403,14.766896830346992],[121.0957037634468,14.766785974755745]]]}},{"type":"Feature","properties":{"source_object_id":59152,"mgb_landslide_code":"LL","mgb_landslide_label":"Low Susceptibility to Landslide","source_agency":"DENR-MGB","source_service":"https://controlmap.mgb.gov.ph/arcgis/rest/services/GeospatialDataInventory/GDI_Detailed_Rain_induced_Landslide_Susceptibility/FeatureServer/0"},"geometry":{"type":"Polygon","coordinates":[[[121.02604245306226,14.773671347012824],[121.02608891482707,14.773682815370435],[121.02620320478572,14.77371801175017],[121.02604245306226,14.773671347012824]]]}},{"type":"Feature","properties":{"source_object_id":59153,"mgb_landslide_code":"LL","mgb_landslide_label":"Low Susceptibility to Landslide","source_agency":"DENR-MGB","source_service":"https://controlmap.mgb.gov.ph/arcgis/rest/services/GeospatialDataInventory/GDI_Detailed_Rain_induced_Landslide_Susceptibility/FeatureServer/0"},"geometry":{"type":"Polygon","coordinates":[[[121.0235687937054,14.774001860963129],[121.02357128024211,14.773978620265224],[121.02357376677884,14.773955379564812],[121.02357459053393,14.77394767841125],[121.02359848302552,14.774031844725751],[121.02363201713511,14.77412777032811],[121.0236622211899,14.774176194782532],[121.02365966278796,14.774174710318556],[121.02364108293295,14.774154657458576],[121.02362250487455,14.774134605465383],[121.02360392501954,14.774114553470334],[121.02358534606283,14.77409450147344],[121.02358120842263,14.774071341566701],[121.02357706988414,14.774048181657518],[121.02357293224394,14.774025020877234],[121.0235687937054,14.774001860963129]]]}},{"type":"Feature","properties":{"source_object_id":59154,"mgb_landslide_code":"LL","mgb_landslide_label":"Low Susceptibility to Landslide","source_agency":"DENR-MGB","source_service":"https://controlmap.mgb.gov.ph/arcgis/rest/services/GeospatialDataInventory/GDI_Detailed_Rain_induced_Landslide_Susceptibility/FeatureServer/0"},"geometry":{"type":"Polygon","coordinates":[[[121.06521816136743,14.777277407297143],[121.06524429785065,14.777329384504222],[121.06521823682593,14.77728104153276],[121.06521816136743,14.777277407297143]]]}},{"type":"Feature","properties":{"source_object_id":59155,"mgb_landslide_code":"LL","mgb_landslide_label":"Low Susceptibility to Landslide","source_agency":"DENR-MGB","source_service":"https://controlmap.mgb.gov.ph/arcgis/rest/services/GeospatialDataInventory/GDI_Detailed_Rain_induced_Landslide_Susceptibility/FeatureServer/0"},"geometry":{"type":"Polygon","coordinates":[[[121.06539188117036,14.777481442084364],[121.0654028226505,14.7774874771334],[121.06539740401273,14.777485875430719],[121.06539188117036,14.777481442084364]]]}},{"type":"Feature","properties":{"source_object_id":59156,"mgb_landslide_code":"LL","mgb_landslide_label":"Low Susceptibility to Landslide","source_agency":"DENR-MGB","source_service":"https://controlmap.mgb.gov.ph/arcgis/rest/services/GeospatialDataInventory/GDI_Detailed_Rain_induced_Landslide_Susceptibility/FeatureServer/0"},"geometry":{"type":"Polygon","coordinates":[[[121.02491556866568,14.77928267846707],[121.02499877329716,14.779320341037169],[121.0250156189736,14.779326811597842],[121.02500613600012,14.779326235000099],[121.02492772300002,14.779296972000111],[121.02491556866568,14.77928267846707]]]}},{"type":"Feature","properties":{"source_object_id":59162,"mgb_landslide_code":"HL","mgb_landslide_label":"High Susceptibility to Landslide","source_agency":"DENR-MGB","source_service":"https://controlmap.mgb.gov.ph/arcgis/rest/services/GeospatialDataInventory/GDI_Detailed_Rain_induced_Landslide_Susceptibility/FeatureServer/0"},"geometry":{"type":"MultiPolygon","coordinates":[[[[121.0991175753255,14.765363797411185],[121.09914307220821,14.765221252638932],[121.09919309758976,14.764965821214192],[121.09923336457234,14.764880666336314],[121.09935617505147,14.764729474672299],[121.09939939928802,14.764661537285408],[121.09941704220017,14.764541000273454],[121.09943570110694,14.764497945429973],[121.09946909777427,14.764440535194566],[121.0995526069597,14.764329535891292],[121.0996164583118,14.764225239944682],[121.09966163189249,14.764122865414564],[121.09968418230105,14.763986060778194],[121.09968515337988,14.76395640832497],[121.09971263374275,14.763856909790952],[121.09973225564347,14.763767936730547],[121.0997273077229,14.763691412364258],[121.09970171472047,14.763610111221857],[121.09966333779319,14.763513510373109],[121.09964561672759,14.763450382368003],[121.09963968335516,14.763365246007032],[121.09963964742253,14.763279149744431],[121.09966220322099,14.763158611966052],[121.09969850863324,14.763003627402643],[121.09971418782817,14.762887873185909],[121.09972005292869,14.76281038429617],[121.09973773267178,14.762776897412442],[121.09979739916051,14.762767746309084],[121.09973415350626,14.765043322462843],[121.09972689988776,14.765040220408931],[121.0996934780676,14.765040235176004],[121.0996345072625,14.765060346208038],[121.09959028859095,14.765101498592633],[121.09953333180866,14.765235446401661],[121.09952352579901,14.765292846003303],[121.0995117515806,14.765346420051497],[121.09950096371234,14.765404776876846],[121.09948525936456,14.765456439866545],[121.09943219318576,14.765497595650746],[121.09933194209836,14.765534944133774],[121.0992503642908,14.765559846593526],[121.09920317668721,14.765555082048188],[121.09915991202652,14.765525446313358],[121.09911957587362,14.765446062968397],[121.0991175753255,14.765363797411185]]],[[[121.03977923796042,14.77558872326533],[121.0397792729947,14.775584802360124],[121.03977955865898,14.775552859227563],[121.03980167518125,14.775484302430575],[121.03980522891655,14.775430531969835],[121.03980619370715,14.7753229388918],[121.03983159536845,14.775230500423184],[121.03984444397194,14.775167841397314],[121.0398850666874,14.775090475017047],[121.03990723710861,14.77501594115364],[121.03992609274641,14.774968277790814],[121.03992956742997,14.774923474758774],[121.0399385353114,14.774891451616575],[121.03993086459722,14.774860453432817],[121.04050288482067,14.774756875671471],[121.04081044371947,14.774711664347493],[121.04090797470816,14.774796181285732],[121.04095593755781,14.774928100120674],[121.0409301891468,14.775059392606297],[121.04077080196429,14.775022174314733],[121.04056206134004,14.775008445898782],[121.04043856544634,14.77507913094522],[121.04036346000038,14.775233915802962],[121.04037360108165,14.775473113860585],[121.0405070242575,14.775665536163842],[121.04075155016942,14.775799123937528],[121.04103282526128,14.775944979855758],[121.04120342611354,14.776101849624064],[121.04137295617394,14.776378268265985],[121.04151759301955,14.776690341946713],[121.04151491424338,14.776989208919428],[121.04146416481969,14.777168111802242],[121.04130359904748,14.777262394359555],[121.04109474793049,14.777260620671788],[121.04091111072682,14.777187328787441],[121.04078932971703,14.777066738789594],[121.0405959799285,14.776706429388774],[121.04040188004677,14.77642980183025],[121.04011003627558,14.776092566811625],[121.03983026226855,14.775779344839387],[121.03978661133227,14.775624101744311],[121.03978508509458,14.775621649658913],[121.0397836513834,14.775613571587765],[121.03977923796042,14.77558872326533]]],[[[121.09270541070893,14.767760865130715],[121.09275555376973,14.767646503273749],[121.09284329042693,14.767517986832775],[121.09285352672958,14.767502989725036],[121.09290489419418,14.767427747052679],[121.09303147580086,14.767347128323667],[121.09305172023412,14.767258857686778],[121.09304565480929,14.76721321134976],[121.09302600236583,14.767065285672187],[121.09300426672922,14.767032968638848],[121.09298718885735,14.767007578169824],[121.09298802339225,14.766911936945784],[121.09306756561742,14.766807381644634],[121.09312678525586,14.766779176739043],[121.09325446729876,14.766789795925511],[121.09337519907635,14.766834994130708],[121.09345700775094,14.766829550333007],[121.09359266593525,14.76677088986434],[121.0936428494203,14.766651744723685],[121.0935701811037,14.766531584939026],[121.0934731495783,14.766387313194269],[121.09314374544842,14.766121562735886],[121.09305962720521,14.765905661096815],[121.09306087766011,14.765762201123655],[121.09322141738114,14.765667877961677],[121.09343088833575,14.76559787174409],[121.09342930460589,14.765584630045355],[121.09357111175832,14.765681538344406],[121.09378343396564,14.765848283373177],[121.09391555009279,14.76591393497478],[121.09401043644128,14.76602232231271],[121.09409083026934,14.766101894812445],[121.09416410405042,14.766152714179608],[121.09421432526472,14.76631094784378],[121.09421282507819,14.766483100581768],[121.0941816526395,14.76667652978831],[121.0941581248639,14.766800138013698],[121.09416601027546,14.766797550320096],[121.09416746105464,14.766797527735333],[121.0941657847983,14.766805522744272],[121.09411318664179,14.766919865933545],[121.09401592514769,14.767084055330653],[121.09386737703733,14.767211952685448],[121.09372595077059,14.76736860378006],[121.09359995396719,14.767446473247734],[121.0934445984236,14.767509752104768],[121.09331891423392,14.767551756163487],[121.09323751878429,14.767586950930324],[121.093192790768,14.76764397031463],[121.09314781391835,14.767729680909111],[121.09308815680035,14.767808098359893],[121.09307357085507,14.767816451211795],[121.09297934925989,14.767906598754596],[121.09286141124284,14.767905625008442],[121.09274905715363,14.767870965375923],[121.09273397803325,14.767866312935928],[121.09270541070893,14.767760865130715]]],[[[121.03921154222675,14.769186810567666],[121.03921223931937,14.769109105027079],[121.03922527387417,14.769025526609715],[121.03933049983162,14.768936753713982],[121.0394780777614,14.76892007328647],[121.03967992201922,14.769017431789269],[121.03978930717642,14.769149872708153],[121.03980879971976,14.769215564138403],[121.03989142406468,14.76940778524836],[121.03994819399738,14.769672040244892],[121.0399559778993,14.769654843905457],[121.04000827062862,14.770078290230654],[121.04000580565149,14.770353249418685],[121.03999660780129,14.770693905322577],[121.03990911279091,14.77086054140183],[121.03985286477943,14.770967663287253],[121.0397294793785,14.771026393850702],[121.03962500261603,14.771031484880272],[121.03953185181264,14.771006781963305],[121.03952079534811,14.771006688151445],[121.03951007575185,14.77100100732273],[121.0395080213048,14.7709999180629],[121.03947020402795,14.770979877070726],[121.03942908723909,14.770958086659041],[121.039393089949,14.77086213620435],[121.03938764436177,14.770784379145011],[121.03939546239968,14.770767534688405],[121.03939101394239,14.770762968304716],[121.03941333977214,14.770659063722535],[121.03950099737759,14.770474496352962],[121.03951879210506,14.770435043158333],[121.03953981537762,14.770388436782806],[121.039541671297,14.77038763503666],[121.03956397556719,14.7703016753247],[121.03959004737168,14.770134516769227],[121.03957392440897,14.76987733561164],[121.03956807817309,14.769704567963732],[121.0395270359444,14.769625869759867],[121.03943009694545,14.769475602148917],[121.03929016008546,14.769324967870112],[121.03921154222675,14.769186810567666]]]]}},{"type":"Feature","properties":{"source_object_id":59163,"mgb_landslide_code":"ML","mgb_landslide_label":"Moderate Susceptibility to Landslide","source_agency":"DENR-MGB","source_service":"https://controlmap.mgb.gov.ph/arcgis/rest/services/GeospatialDataInventory/GDI_Detailed_Rain_induced_Landslide_Susceptibility/FeatureServer/0"},"geometry":{"type":"MultiPolygon","coordinates":[[[[121.07344185331462,14.74111054402585],[121.07345165932428,14.741036404222443],[121.07355483263129,14.74094071509332],[121.07384965162268,14.740778005426048],[121.07402653619032,14.740655986127054],[121.07416885618692,14.740556013960049],[121.07458204100021,14.740432941000108],[121.07503917800011,14.740194067000061],[121.07549266900003,14.740862272000015],[121.07580887200004,14.741313927000022],[121.07590154000002,14.741437949000158],[121.07595978800009,14.74150028400004],[121.07601108300014,14.741548051],[121.07609636400002,14.741623936000167],[121.07618767000008,14.741685693000022],[121.07630441700007,14.741747311000154],[121.07638346600015,14.741779283000142],[121.07644236700014,14.74179481200008],[121.07693032700001,14.74194126600014],[121.0771464290001,14.741994946000148],[121.07727702900013,14.742028316000074],[121.07740492000028,14.742069153000159],[121.07751648300018,14.742111367000064],[121.07759667100004,14.742159909],[121.07765422900002,14.74220914099999],[121.077691232,14.74225725399998],[121.0777384820002,14.742331639000042],[121.07777222300001,14.74240096799997],[121.0777792230001,14.742419264000091],[121.0778048410001,14.742486227000029],[121.07783156300013,14.742608122999968],[121.07785205600032,14.742793453000047],[121.0779277380002,14.744484521000174],[121.07793937200006,14.744757917000015],[121.07796245800023,14.744864138000025],[121.0779879370001,14.744943137000064],[121.0780248640001,14.745028370000114],[121.07804660400006,14.745071207000024],[121.07806786900017,14.745112825000092],[121.07812049100005,14.74520209900004],[121.07817219900005,14.745282704000033],[121.07824237000011,14.745362763000173],[121.07831490900003,14.745432391000065],[121.07837680500018,14.745473914000058],[121.07844493000005,14.745524666000165],[121.07854430900011,14.745576093000068],[121.07886259500003,14.745701059000112],[121.07890547600005,14.745717894000165],[121.07958387100018,14.745930951000105],[121.07963194000001,14.745945034000101],[121.08008521600004,14.746076940000023],[121.08028556500017,14.74615118500003],[121.08045146800009,14.746227727000132],[121.08047386200019,14.746238058000017],[121.08050181600004,14.746255922999978],[121.08060654300004,14.746322849000023],[121.08066853900004,14.746362467000097],[121.08078514300007,14.746476378000011],[121.08120926800007,14.746901344000037],[121.08144611000012,14.747143012000095],[121.08172476900006,14.74743755500009],[121.08193878200007,14.747645782000177],[121.08223488200008,14.747933876],[121.08271673500008,14.748581255000033],[121.08311786300021,14.749176789000103],[121.0833730610002,14.749570240000025],[121.08358682500011,14.749865298000145],[121.08393741200007,14.750349213000106],[121.08403994900027,14.750506760000064],[121.08442858100011,14.751103892000117],[121.084573986,14.751328984000054],[121.08464699600017,14.751442006],[121.08466199700001,14.75148662200013],[121.08468413000003,14.751552448000098],[121.08474779300002,14.751737576000153],[121.08478153300018,14.751849308000146],[121.08482713500007,14.752390699000102],[121.08484505200022,14.752603404000183],[121.08486294600004,14.75286332100012],[121.08492383400016,14.753630834000091],[121.0849352360002,14.753928663000124],[121.08494338100024,14.754141416000095],[121.08499561300016,14.754787654000097],[121.0850148300002,14.755025411000133],[121.0850514570003,14.755360346000032],[121.08510321200004,14.755667133000088],[121.08534767800006,14.756572334000111],[121.08575497100003,14.758098188000076],[121.08584004200009,14.758376322000174],[121.08584677800013,14.75839832600002],[121.0859338590003,14.758682793000048],[121.08656501200005,14.758500572000173],[121.0865893880001,14.758487880000189],[121.08662827400008,14.758481023000058],[121.08673592700006,14.758480101000146],[121.08765738000022,14.758328206000101],[121.08783808600003,14.758333400000026],[121.08895112500022,14.758365389000062],[121.08972931900007,14.758835195000017],[121.09102126100004,14.758445970000082],[121.09185156900003,14.758851082000035],[121.09304510600009,14.759429212999976],[121.09359293700004,14.759911052000177],[121.0954829210001,14.761407840000174],[121.09584260100019,14.761343557000089],[121.09601146000023,14.761322715000176],[121.09660080300023,14.76156883900012],[121.0973230830001,14.761922454000114],[121.09762136900008,14.76277654800009],[121.09801978300004,14.762209681000172],[121.09853401200007,14.76238034700009],[121.09919845200011,14.762336460000085],[121.09952975800002,14.762415026000042],[121.09972587200002,14.762563555000156],[121.09979889200008,14.762714034000055],[121.09979739916051,14.762767746309084],[121.09973773267178,14.762776897412442],[121.09972005292869,14.76281038429617],[121.09971418782817,14.762887873185909],[121.09969850863324,14.763003627402643],[121.09966220322099,14.763158611966052],[121.09963964742253,14.763279149744431],[121.09963968335516,14.763365246007032],[121.09964561672759,14.763450382368003],[121.09966333779319,14.763513510373109],[121.09970171472047,14.763610111221857],[121.0997273077229,14.763691412364258],[121.09973225564347,14.763767936730547],[121.09971263374275,14.763856909790952],[121.09968515337988,14.76395640832497],[121.09968418230105,14.763986060778194],[121.09966163189249,14.764122865414564],[121.0996164583118,14.764225239944682],[121.0995526069597,14.764329535891292],[121.09946909777427,14.764440535194566],[121.09943570110694,14.764497945429973],[121.09941704220017,14.764541000273454],[121.09939939928802,14.764661537285408],[121.09935617505147,14.764729474672299],[121.09923336457234,14.764880666336314],[121.09919309758976,14.764965821214192],[121.09914307220821,14.765221252638932],[121.0991175753255,14.765363797411185],[121.09911957587362,14.765446062968397],[121.09915991202652,14.765525446313358],[121.09920317668721,14.765555082048188],[121.0992503642908,14.765559846593526],[121.09933194209836,14.765534944133774],[121.09943219318576,14.765497595650746],[121.09948525936456,14.765456439866545],[121.09950096371234,14.765404776876846],[121.0995117515806,14.765346420051497],[121.09952352579901,14.765292846003303],[121.09953333180866,14.765235446401661],[121.09959028859095,14.765101498592633],[121.0996345072625,14.765060346208038],[121.0996934780676,14.765040235176004],[121.09972689988776,14.765040220408931],[121.09973415350626,14.765043322462843],[121.09972917900006,14.765222305000066],[121.09980859900008,14.765742362000026],[121.09973008300017,14.766109057000051],[121.09968506100017,14.766454212000099],[121.09974878100013,14.766717979000191],[121.0997920778458,14.76685377503363],[121.09836431011199,14.766664699704371],[121.0982296930751,14.766603811983295],[121.09816961824045,14.766447889131891],[121.09817706078258,14.766298501000518],[121.09819658117371,14.76617312392346],[121.09826544782003,14.766024242025123],[121.09838317563126,14.765847810828195],[121.09839391858377,14.765614850373424],[121.09821552035484,14.765408098596795],[121.09811838282823,14.765275782221003],[121.09804508838589,14.765227354914629],[121.09802712926673,14.765173404710985],[121.09804623104293,14.765095848881003],[121.09814534396487,14.765001017268377],[121.09828313115638,14.7646972754286],[121.09829240177012,14.764668507361733],[121.09830655472743,14.764624590838997],[121.09844972372585,14.764358451674326],[121.0984332710814,14.76413115325889],[121.09834831471004,14.764010893922833],[121.09823852980253,14.763920319991398],[121.09806711238171,14.763853151112915],[121.09785862957393,14.763809588837534],[121.09751475358486,14.763794799083016],[121.0972257448967,14.76382828667859],[121.0969669788909,14.763915823825029],[121.09685485387209,14.764094239731232],[121.09682232138408,14.76430320087848],[121.09669738998258,14.76454129127254],[121.09648766031317,14.764641188205356],[121.09614815462797,14.764795807635796],[121.09602940722885,14.764888086367721],[121.09597681086898,14.76500242882824],[121.09592478134604,14.765049098033003],[121.09585793680742,14.765109053257506],[121.09571701359724,14.765208321025806],[121.09564317836912,14.7652220587474],[121.09551006241702,14.765271175763965],[121.09542085970931,14.765356523329363],[121.0954200476323,14.76544977297447],[121.09543397780742,14.765543144190605],[121.09540399383987,14.765600284853381],[121.0953296591484,14.7656714081535],[121.09513744932202,14.765734385237318],[121.09492187611171,14.765940639836687],[121.09483935686971,14.766104950715501],[121.09477713865483,14.766477463935741],[121.09477420206215,14.766814596610045],[121.094734907955,14.767094041260835],[121.094747151094,14.767381085307727],[121.09487758018507,14.76764040975239],[121.09514856238039,14.767843505902238],[121.0951368312811,14.76791942857627],[121.09510265667275,14.767963982015388],[121.09504705993982,14.76799939213823],[121.09494795330609,14.768019264889102],[121.0949671098795,14.767989124810178],[121.09497003659074,14.767936031771557],[121.09495674691442,14.767888687384167],[121.09490657959908,14.767808350265792],[121.09485790169045,14.767761017142922],[121.0948195544076,14.767735203730657],[121.09459539959138,14.767670718396104],[121.09444940269644,14.767623421726183],[121.09441253224391,14.767604782410576],[121.09435465468849,14.767488567657487],[121.09435797306513,14.767484317390679],[121.09435302963614,14.767415442730748],[121.09436282486598,14.767328389090375],[121.09439324721143,14.767198279369248],[121.09442565663024,14.767127478835533],[121.09443349263445,14.767059556096358],[121.09443444215371,14.766971549410584],[121.09442753770243,14.766915111841774],[121.09440884376136,14.766871114988925],[121.09438818969636,14.766847208146437],[121.09433706208196,14.766814702584714],[121.09428987178349,14.76680132805743],[121.094233837571,14.766796567882542],[121.09416746105464,14.766797527735333],[121.09416601027546,14.766797550320096],[121.0941581248639,14.766800138013698],[121.0941816526395,14.76667652978831],[121.09421282507819,14.766483100581768],[121.09421432526472,14.76631094784378],[121.09416410405042,14.766152714179608],[121.09409083026934,14.766101894812445],[121.09401043644128,14.76602232231271],[121.09391555009279,14.76591393497478],[121.09378343396564,14.765848283373177],[121.09357111175832,14.765681538344406],[121.09342930460589,14.765584630045355],[121.0934194366125,14.765502130873653],[121.09325026138663,14.765177922567656],[121.09319040035103,14.764998089910314],[121.09297197858295,14.764685432207127],[121.09286297700639,14.764505192612228],[121.09275376791899,14.764348864331042],[121.09266964877744,14.764132961800067],[121.09262176138627,14.763989095863248],[121.09242645237217,14.763844011974285],[121.09216909312809,14.763770150068984],[121.09184947614327,14.76379142087569],[121.09175005420087,14.763809918927176],[121.09165999090712,14.763843268404022],[121.09137422873042,14.763926988667675],[121.09107989033767,14.763867167758963],[121.09091398408111,14.763731890061235],[121.09075865638536,14.763510616004025],[121.09070294466807,14.76313713175043],[121.09075392136549,14.762927128827165],[121.09088310359492,14.762765596130945],[121.09112127123124,14.762585109113143],[121.09122213407134,14.762471085917669],[121.09142223919079,14.762066236768364],[121.09138924407038,14.761623595565915],[121.09120695433967,14.761394926141469],[121.09095043322377,14.761225424021811],[121.09074148688534,14.761235652579284],[121.09026071034191,14.761422972779567],[121.08985478861445,14.761479396138167],[121.08954766809354,14.761476856157898],[121.08952171396834,14.761470108357843],[121.08950856083597,14.761472555390919],[121.08930234268101,14.761451721296556],[121.08917508284631,14.761393279149482],[121.08914115976621,14.761370660806069],[121.08850586221412,14.761193252056511],[121.08795503234991,14.760961529678845],[121.08739212733161,14.76070579616478],[121.08694144075696,14.760625189710495],[121.08687206386757,14.760628168378947],[121.08674472138782,14.76057929006638],[121.08667684558327,14.760473514712661],[121.08656960560297,14.760360162761142],[121.08646560404928,14.76031147723328],[121.08632443380239,14.760298351614498],[121.0861214747353,14.760326559966844],[121.0859061261038,14.760366622196946],[121.08564174293252,14.760394319762081],[121.08548560405805,14.760371674385974],[121.08529204675871,14.76034359807745],[121.08497930907235,14.76028122663325],[121.08483598825865,14.760136946397557],[121.08470686711465,14.76002872030469],[121.08467559316638,14.759890141868853],[121.08467034071688,14.75978847326623],[121.08467733769464,14.759690812675402],[121.08468971737759,14.75962396216234],[121.0847177708656,14.759562981258773],[121.08476331365384,14.759525099252672],[121.08485008282545,14.75949329882842],[121.08493293713907,14.75945955170022],[121.08498039513555,14.75942742464477],[121.08499833628841,14.759398879998729],[121.08501054708803,14.759351157616027],[121.0850081827222,14.759336432708885],[121.08500887083173,14.759270699203077],[121.08496514803021,14.759212947935481],[121.08490886857764,14.75918617883395],[121.08482293933085,14.759178292997918],[121.08474181876574,14.759182402701663],[121.08466315509294,14.759186532384865],[121.08458205518909,14.759188250624916],[121.08450588973112,14.759187619966545],[121.0844224586991,14.759174972051454],[121.08434658699021,14.75914086611082],[121.08421691517891,14.75907762043374],[121.08403577619009,14.758990456607744],[121.08397466739459,14.758954081655459],[121.083901483445,14.75889369560756],[121.08379013726554,14.758651262591068],[121.08379082806998,14.758572360590069],[121.08380767237988,14.75850076414421],[121.08384378016271,14.758417851399818],[121.08393233428679,14.758285284934136],[121.08392305918149,14.758251700061525],[121.08390533811588,14.758171349826798],[121.08394360904194,14.758198964278314],[121.08396435743005,14.758267165156754],[121.08402720895722,14.758231599692593],[121.0840449515824,14.758236341812744],[121.08414717537015,14.75822100180513],[121.08418099334735,14.75820799680662],[121.08422187208267,14.758192278052766],[121.08425141407908,14.758153917165483],[121.08428671786976,14.758108075201324],[121.08433188875553,14.757981789105303],[121.08436133912376,14.75786889973059],[121.08437866043911,14.757690595988594],[121.08438680187052,14.757606782981036],[121.08440837221711,14.757449891177759],[121.08448694875334,14.757281503978492],[121.0846127048083,14.757095880225288],[121.08482496143857,14.7569140542025],[121.08492714659876,14.756797313392996],[121.08497035915717,14.756690160202226],[121.08496634907775,14.756470142918513],[121.08496153770109,14.756444228266853],[121.0849446826114,14.75635344356773],[121.08491320564386,14.756297970960228],[121.0848286499211,14.756236777164466],[121.08470477942993,14.75618707608669],[121.08457698599595,14.75616990126653],[121.08447080782429,14.756116366654544],[121.08433906090475,14.756032229019791],[121.08422302731613,14.755907910166837],[121.08411484500309,14.755751064047455],[121.08405387814138,14.755686035702631],[121.08398112807811,14.755651621698853],[121.08391625264659,14.755659294833789],[121.08386122095398,14.755693752270853],[121.08383372262482,14.755770290744326],[121.083814103419,14.755875522848887],[121.0837983936813,14.7559329240525],[121.08376695983291,14.755986503012728],[121.08370406518658,14.756030529865944],[121.08360577242651,14.756040127131504],[121.08357483534644,14.756049130214095],[121.08356773506245,14.75605119508546],[121.0835566597333,14.756054423998668],[121.08354368267071,14.755839791074107],[121.0835128956093,14.755368634590125],[121.08351948924347,14.755368203719543],[121.08355633184823,14.755821473031952],[121.08346472974038,14.753975948655894],[121.08342440526559,14.75401617710794],[121.08338033391776,14.753759373880007],[121.08326126402349,14.753662945870131],[121.08315870426578,14.753590360967724],[121.08304915022535,14.753474674711708],[121.08290293234487,14.753337164943426],[121.08282292389407,14.753214552413263],[121.08272867714602,14.753034431010715],[121.08270051406355,14.752883553399197],[121.08271682567248,14.752704349939972],[121.08265918078072,14.752553227994339],[121.08254257227031,14.75240161686418],[121.08245519314261,14.75227894212892],[121.08239735960464,14.752149337676231],[121.08236969957873,14.75194107718952],[121.08242691238085,14.75176184428678],[121.08264122166155,14.751528039129381],[121.08269644469533,14.751394591071561],[121.08270240591554,14.751275082205789],[121.08267850713572,14.75119836667203],[121.08253676466198,14.751111107606016],[121.08238486044577,14.75106202474605],[121.08223795176085,14.751003417359161],[121.08211557157472,14.750949796342509],[121.08201343133028,14.750829389856216],[121.08198041914193,14.750671297821166],[121.08203639586222,14.75045177482798],[121.0820867060097,14.750318286149476],[121.08225032156231,14.750152260669472],[121.0823447713296,14.75002870292343],[121.08237059519907,14.749885447049786],[121.0823376656557,14.749717790664812],[121.08228449617064,14.749616920868332],[121.08221662665431,14.749511146265387],[121.082173408706,14.749396011211825],[121.08213514676308,14.749276134650765],[121.08207235901631,14.749151271596585],[121.08198937175203,14.749088413937518],[121.08181789773734,14.749029601870854],[121.08160703080081,14.748980028585462],[121.08139603899846,14.748944802139945],[121.08122918501928,14.748919505118085],[121.08108710927057,14.748870501685769],[121.08099471395035,14.748759741152675],[121.08093154980945,14.74867791667383],[121.0807751531185,14.748580971262516],[121.08063803337521,14.748527227159759],[121.08038726956195,14.748544274012907],[121.08015232328421,14.748670788847233],[121.08008906931181,14.748713725203105],[121.07996150135496,14.748800317187111],[121.07991097471347,14.748834614129034],[121.07986231387285,14.748818846049842],[121.07973551307725,14.748808840168802],[121.07960574873948,14.748760094720538],[121.07950105099145,14.748708471200949],[121.0794523829643,14.748675484265023],[121.07933146793043,14.748629604686315],[121.07926806393935,14.748610970692628],[121.07921793075997,14.748603814196194],[121.0791663333267,14.748623917191997],[121.07910294370868,14.748652635257873],[121.07906609571403,14.748689956228274],[121.07889373057056,14.74910613139524],[121.07885837467762,14.749199410593935],[121.07874933177855,14.749390286382821],[121.07870658544574,14.749427608095463],[121.07867710543306,14.749446270686802],[121.07860633525665,14.74944916176817],[121.07850164289849,14.749421932784017],[121.07840137025157,14.749383221995734],[121.07832985088021,14.749320618068394],[121.07814923381258,14.749179160838343],[121.07803085921432,14.749006315936658],[121.07795510698135,14.74888911741419],[121.07787940774898,14.748765940317787],[121.0778060180852,14.748729462016112],[121.07772672379508,14.748666035225295],[121.07769411495028,14.748600021374559],[121.0776388146614,14.748488075772237],[121.07752343414795,14.748383382175314],[121.0772986109852,14.748262994249659],[121.07724828736295,14.748236046582132],[121.0771718946312,14.74819514206656],[121.07704690394087,14.748089489262105],[121.07695871093958,14.747990118990748],[121.07687007327216,14.747941558396525],[121.07650922271749,14.747852756914106],[121.07642223615356,14.747854218971074],[121.07624824685608,14.747825572903695],[121.07617009432467,14.747789724267143],[121.0761206142205,14.747757983806741],[121.07601536670352,14.747695329026111],[121.07599415927626,14.747662275045071],[121.07598213712284,14.747632285040138],[121.07598253058492,14.74758745378873],[121.07599211201575,14.747545688247847],[121.0760231901313,14.747504100786996],[121.07606337536721,14.747474545990082],[121.0761496774149,14.747439396617203],[121.0763793326156,14.747400801885133],[121.07658426258642,14.747367735697265],[121.0767818218803,14.74734041263065],[121.07686291369933,14.747343257697688],[121.07697938656412,14.747331742777305],[121.07703835736928,14.74731450731631],[121.07712827962754,14.747265693772992],[121.07718871109333,14.747206843858693],[121.07719895727743,14.747167733932386],[121.07720096860538,14.74715365800585],[121.07720713733644,14.747110511111087],[121.07721660737613,14.747044275263969],[121.07720191183643,14.746965762585866],[121.07717533787368,14.746858155422833],[121.0771340198622,14.746751984209263],[121.07706468878686,14.746642953099395],[121.07702339592822,14.746609962375517],[121.07696146427591,14.746588457070306],[121.07683614210724,14.746587061896738],[121.07671229587059,14.746594272320483],[121.07669137859921,14.746588967881063],[121.07662837705338,14.746437618426182],[121.07659055618329,14.746070688949382],[121.07654931722355,14.74514570033958],[121.0765453763144,14.745047564929862],[121.07651457667657,14.744280852067497],[121.07648936725474,14.744048463600818],[121.07644323427333,14.743885392255232],[121.07637920056327,14.7438084873385],[121.07635913579304,14.743784387707986],[121.07622688491861,14.74362554778545],[121.07611985244912,14.743625626840554],[121.07610685203034,14.743612720005833],[121.07602855756512,14.74358089901254],[121.07602193698148,14.743578206794206],[121.07582816139157,14.743499447013162],[121.0756291126909,14.743470808191367],[121.0756218480152,14.743471854152153],[121.07561567119929,14.74347274374008],[121.07553918234781,14.743483750652766],[121.07541091729827,14.743502443290792],[121.07530623661822,14.743498169968131],[121.075198592396,14.74344367488934],[121.0751042037142,14.743359043255161],[121.07508747888025,14.743321090666393],[121.0750817871546,14.743308175126252],[121.07507764861606,14.743298784059041],[121.07505699365275,14.743254307229487],[121.0749530181502,14.743174767203291],[121.07493995664598,14.743164774962635],[121.07492574439985,14.743153904425924],[121.0749013371736,14.743064472022878],[121.07488952342929,14.742999903794471],[121.07488213837931,14.742953990007473],[121.07487989798102,14.742898974416876],[121.07484302034197,14.742839194638309],[121.0748012226301,14.742760287772716],[121.0747176496643,14.742681393040876],[121.0745529776929,14.74256425887505],[121.0742998117846,14.742349096612923],[121.07407613127883,14.742110010677322],[121.07397042292614,14.741964160734703],[121.07387454304089,14.741811132255984],[121.07375162386562,14.741624630036696],[121.07366803832336,14.741497902608446],[121.07355741259276,14.741337703166767],[121.073478746225,14.74122771632982],[121.07344185331462,14.74111054402585]]],[[[121.03760029608537,14.774605866338224],[121.03764082178277,14.774433672261216],[121.03773665405728,14.774326042207605],[121.03776531660304,14.774296147952928],[121.03778948667409,14.77421924162838],[121.03794896997636,14.773971922364419],[121.03816716267403,14.7737537935722],[121.03839069495776,14.773593603119455],[121.03856286157352,14.773470221993025],[121.03875028158285,14.7733952993012],[121.0390257257102,14.773368946277325],[121.03943850607484,14.77337245289134],[121.03997463770439,14.773416164389658],[121.04020829759462,14.773355568678909],[121.04027715256284,14.773321351174062],[121.0403138316742,14.773293916710427],[121.04031397809959,14.77329380726441],[121.04047182826469,14.773228196111411],[121.040624208588,14.773150011669324],[121.04072350386794,14.773099066251296],[121.04072855868804,14.773096473420958],[121.04089580792598,14.773078763129497],[121.04096443292548,14.773098474721152],[121.0410028026662,14.773204010272778],[121.04098260764027,14.773367845737303],[121.04098276035387,14.773368888948488],[121.0409876561722,14.773402440215321],[121.0410026786987,14.773480997203842],[121.04101419779558,14.773511700254277],[121.04103919162172,14.773552632146803],[121.04110296931196,14.77360227626895],[121.0412855321305,14.773795115428236],[121.04137013456565,14.773951256242503],[121.04134427925514,14.774094504079256],[121.04124556877845,14.77414148924494],[121.04104900571622,14.774139820634163],[121.04079101765142,14.77413763085393],[121.0405083519675,14.774147187363864],[121.04005294294937,14.77423896440859],[121.03992891165979,14.774369421703227],[121.0398661993715,14.77451235743178],[121.03984044916386,14.774643650168654],[121.03988873181376,14.774739704924205],[121.03992473000216,14.774835655403766],[121.03993086459722,14.774860453432817],[121.0399385353114,14.774891451616575],[121.03992956742997,14.774923474758774],[121.03992609274641,14.774968277790814],[121.03990723710861,14.77501594115364],[121.0398850666874,14.775090475017047],[121.03984444397194,14.775167841397314],[121.03983159536845,14.775230500423184],[121.03980619370715,14.7753229388918],[121.03980522891655,14.775430531969835],[121.03980167518125,14.775484302430575],[121.03977955865898,14.775552859227563],[121.0397792729947,14.775584802360124],[121.0397758629899,14.775585875962017],[121.03977055214992,14.775587548036112],[121.0396725917665,14.775550850132479],[121.03950124171932,14.775477660167265],[121.03930564434597,14.775368399379824],[121.03907254590281,14.77533055139829],[121.0388011298212,14.775297737011401],[121.03869629103764,14.775195749017566],[121.03847017430084,14.775090553192117],[121.03830967320732,14.774997838405904],[121.03830303555571,14.774994004351264],[121.03820492695027,14.774994004351264],[121.037950547418,14.774882036723296],[121.03775884424141,14.77483543043302],[121.03761505899874,14.774720656233475],[121.03760029608537,14.774605866338224]]],[[[121.07135470039701,14.745359726144418],[121.07136589160879,14.74531093561848],[121.07138946160522,14.74524320240006],[121.07140713865337,14.745193835879144],[121.0714312970463,14.745120362045837],[121.0714678476986,14.745073862312019],[121.0714985054026,14.745042283908486],[121.0715332827805,14.74498372963079],[121.07154683206993,14.744931496234193],[121.07155447493636,14.74485171357558],[121.0715638928738,14.74478857494289],[121.0715880656398,14.744771348836643],[121.0716423202897,14.74476042886237],[121.07169185339444,14.744736882720254],[121.07173371937827,14.744715632637558],[121.07178146214066,14.744629527256931],[121.07180974020751,14.744530222298582],[121.0718079516618,14.744467661280959],[121.07179787885251,14.744306379843165],[121.07179076689042,14.744188720097942],[121.07177008138436,14.744036051101912],[121.07173939044269,14.74395513093938],[121.07170516193543,14.743883969264736],[121.07164615699426,14.743777230184119],[121.07160072020721,14.743687704213468],[121.07158451729443,14.743628899375008],[121.0715765213901,14.743599888750555],[121.07158121868068,14.743537325728076],[121.07158770002547,14.743510349675917],[121.07161305227943,14.743494845307415],[121.07165669423256,14.743505734939362],[121.07175638207629,14.743571715585437],[121.07185901280084,14.743613586137258],[121.07193449014935,14.743590031183757],[121.07197634714998,14.743534920192715],[121.07203176421986,14.74347463758933],[121.07207243274942,14.743396565811713],[121.07207949440588,14.743338593146328],[121.07209008374642,14.74324962733208],[121.07211070187886,14.743174431869866],[121.0721419380979,14.743103254302754],[121.07221505287718,14.743068793134736],[121.07230704395553,14.743037198803087],[121.0724102433137,14.743015358680006],[121.07252110260629,14.74297400317608],[121.07260364969603,14.742922895184863],[121.07265612208843,14.742869503262622],[121.07273099487074,14.742793145293819],[121.07279112360426,14.742707033071703],[121.07285066214469,14.742616331253624],[121.07289310844018,14.74256408773289],[121.0729567873157,14.742529633429498],[121.07299983907572,14.742530192030584],[121.07301930916117,14.742550848975874],[121.07303170231884,14.742585859270603],[121.0730311309903,14.742653012127715],[121.07302229965275,14.742693192285623],[121.07298222760454,14.742793072319605],[121.07294039126513,14.742906728794324],[121.0729368626827,14.742944036849995],[121.07294336738369,14.743000284302624],[121.07295045509127,14.743037589736042],[121.07295930978503,14.743073173320816],[121.07298586218822,14.743111621134377],[121.07301654235009,14.743150642309187],[121.07304780372198,14.74317129398318],[121.07309735209812,14.743203995937957],[121.07313098142909,14.743243591332796],[121.07314101201753,14.743271710678538],[121.07314986760963,14.743290076688929],[121.07315813121191,14.743327956309042],[121.07312747260958,14.743349774682294],[121.0730584837924,14.7433825096223],[121.07303431372135,14.743408346774212],[121.07302960295601,14.743439914989867],[121.07303197271173,14.743476646112041],[121.07304377657455,14.743509360183257],[121.07306973788627,14.743547235421518],[121.07314229032019,14.743595427782457],[121.0732142642391,14.743627771753644],[121.07322014371263,14.743630421403243],[121.0732531792572,14.743660257324219],[121.07328621839504,14.743706164012423],[121.07329920533907,14.743744042691397],[121.07330865112428,14.743778476821685],[121.07329922600033,14.743814639732816],[121.07328567221933,14.74385080437544],[121.0732556074034,14.743888694322838],[121.07321020834556,14.743927162842038],[121.0731606869189,14.743985720010107],[121.07307462741636,14.744128661809397],[121.0730327641275,14.744156798415514],[121.07293900875794,14.744203889953933],[121.07284229433778,14.744216544820395],[121.07277034018186,14.744201069170456],[121.07273259836349,14.744206820198007],[121.07265771390313,14.744251036212448],[121.07261583983446,14.744249325673055],[121.07255744934099,14.744226383246627],[121.07251852264481,14.744217211140302],[121.07246545287275,14.744239612345709],[121.07238703623665,14.744303917848532],[121.07232041987012,14.744388309344687],[121.07219308008534,14.744545036818629],[121.07213826129343,14.744634591104907],[121.07212530938368,14.744709209223902],[121.07210586085779,14.744755704691936],[121.07200565468615,14.744925627078182],[121.07194317236655,14.745024366311611],[121.07192963385694,14.745112759775262],[121.07192729194895,14.745172452056401],[121.07193319927026,14.745202872422265],[121.0719385137035,14.745228123833304],[121.0719544489183,14.745266001378713],[121.07196507508979,14.74530502824855],[121.07196450106638,14.7453584048051],[121.07196215197189,14.74538825265149],[121.0719527259496,14.74542326770237],[121.0719320952408,14.745458285353822],[121.07188492560354,14.74549388418007],[121.0718094518483,14.745542117809123],[121.0717263082772,14.745577727046445],[121.07166320432343,14.745576022598591],[121.07157650701706,14.745561698112342],[121.07153463833825,14.74557605908524],[121.07146859689355,14.745612810696494],[121.07142377724907,14.745616841602075],[121.07141139217624,14.745613402301395],[121.07140195178093,14.745601924644873],[121.07139840343555,14.745568062427246],[121.07138304763407,14.745492303959972],[121.07135943362019,14.745411380863798],[121.07135470039701,14.745359726144418]]],[[[121.09372000572003,14.768856279738387],[121.09373766120864,14.768758698792286],[121.09378922899754,14.76865536915857],[121.09389387374497,14.768544841072154],[121.09408105300581,14.768328099260303],[121.09417392173816,14.768257755130193],[121.09431269258494,14.768168588427123],[121.09427660366671,14.768294920724774],[121.09430942361564,14.768405785101452],[121.0943485955519,14.768492787929283],[121.09447809668326,14.768648585967195],[121.09463907388387,14.768786212005844],[121.09490424936921,14.768809920585836],[121.09505399673044,14.768822940585673],[121.0950658958147,14.768823976000924],[121.09511399788578,14.768873149311116],[121.09512292722282,14.768981374062179],[121.09498319601131,14.768971055298344],[121.09489525723323,14.768977800259666],[121.09461807037418,14.769042477174954],[121.094333509245,14.76910141586267],[121.0940784281285,14.769131646994078],[121.09393539297909,14.769123090931934],[121.09384985360109,14.769080076953328],[121.09376134888437,14.768999754173516],[121.09372150500828,14.768920850716194],[121.09372000572003,14.768856279738387]]],[[[121.08342440526559,14.75401617710794],[121.08345149755625,14.754174048670148],[121.08352062561231,14.755366525409078],[121.08351280398114,14.755367229917233],[121.08344374419706,14.754310335655708],[121.08342440526559,14.75401617710794]]],[[[121.07651023871207,14.746412110881156],[121.0765531826742,14.74634445271586],[121.07663269615328,14.746569334677945],[121.07659874522543,14.74654696672385],[121.07655450140105,14.746511106583256],[121.07652204706648,14.746459459074652],[121.07651299833663,14.74642317932479],[121.07651023871207,14.746412110881156]]],[[[121.07649087372948,14.74579797773805],[121.07649526738955,14.745700402084074],[121.07650423976257,14.745679796692611],[121.07651846638176,14.74593801418851],[121.07649237840758,14.745889811052692],[121.07649087372948,14.74579797773805]]]]}},{"type":"Feature","properties":{"source_object_id":59165,"mgb_landslide_code":"VHL","mgb_landslide_label":"Very High Susceptibility to Landslide","source_agency":"DENR-MGB","source_service":"https://controlmap.mgb.gov.ph/arcgis/rest/services/GeospatialDataInventory/GDI_Detailed_Rain_induced_Landslide_Susceptibility/FeatureServer/0"},"geometry":{"type":"Polygon","coordinates":[[[121.09427660366671,14.768294920724774],[121.09431269258494,14.768168588427123],[121.09438619813137,14.768121357013532],[121.09448645640529,14.768094055663948],[121.09469140613905,14.768071019333208],[121.09487718133306,14.768033641752151],[121.09494795330609,14.768019264889102],[121.09504705993982,14.76799939213823],[121.09510265667275,14.767963982015388],[121.0951368312811,14.76791942857627],[121.09514856238039,14.767843505902238],[121.09487758018507,14.76764040975239],[121.094747151094,14.767381085307727],[121.094734907955,14.767094041260835],[121.09477420206215,14.766814596610045],[121.09477713865483,14.766477463935741],[121.09483935686971,14.766104950715501],[121.09492187611171,14.765940639836687],[121.09513744932202,14.765734385237318],[121.0953296591484,14.7656714081535],[121.09540399383987,14.765600284853381],[121.09543397780742,14.765543144190605],[121.0954200476323,14.76544977297447],[121.09542085970931,14.765356523329363],[121.09551006241702,14.765271175763965],[121.09564317836912,14.7652220587474],[121.09571701359724,14.765208321025806],[121.09585793680742,14.765109053257506],[121.09592478134604,14.765049098033003],[121.09597681086898,14.76500242882824],[121.09602940722885,14.764888086367721],[121.09614815462797,14.764795807635796],[121.09648766031317,14.764641188205356],[121.09669738998258,14.76454129127254],[121.09682232138408,14.76430320087848],[121.09685485387209,14.764094239731232],[121.0969669788909,14.763915823825029],[121.0972257448967,14.76382828667859],[121.09751475358486,14.763794799083016],[121.09785862957393,14.763809588837534],[121.09806711238171,14.763853151112915],[121.09823852980253,14.763920319991398],[121.09834831471004,14.764010893922833],[121.0984332710814,14.76413115325889],[121.09844972372585,14.764358451674326],[121.09830655472743,14.764624590838997],[121.09829240177012,14.764668507361733],[121.09828313115638,14.7646972754286],[121.09814534396487,14.765001017268377],[121.09804623104293,14.765095848881003],[121.09802712926673,14.765173404710985],[121.09804508838589,14.765227354914629],[121.09811838282823,14.765275782221003],[121.09821552035484,14.765408098596795],[121.09839391858377,14.765614850373424],[121.09838317563126,14.765847810828195],[121.09826544782003,14.766024242025123],[121.09819658117371,14.76617312392346],[121.09817706078258,14.766298501000518],[121.09816961824045,14.766447889131891],[121.0982296930751,14.766603811983295],[121.09822568299565,14.766704461083897],[121.09822976583861,14.766800142356935],[121.09826783015217,14.766943927386766],[121.0982663739831,14.76711129773933],[121.09826487738982,14.767283451580731],[121.09824921975442,14.767388535656272],[121.09821769787112,14.767622613020704],[121.09823544139456,14.767842749316051],[121.09826335115217,14.768589031292425],[121.09827609734772,14.768818690344958],[121.09817009255092,14.76914062781869],[121.09809005341799,14.769431611471386],[121.09798881600022,14.769218427000112],[121.09783033900021,14.769035713000108],[121.0977572610002,14.768931638000083],[121.0975930740002,14.768762164000123],[121.09744517600018,14.768714362000082],[121.09717590300022,14.768616135],[121.09691334600006,14.76850390500016],[121.09665808700004,14.768419146000156],[121.09644257700006,14.76836305300003],[121.09620014900008,14.768311949000065],[121.09614794200002,14.768308138],[121.09586862300023,14.768287748000091],[121.0955979680001,14.768318172000136],[121.09540263000008,14.768391762000022],[121.09523367300005,14.768506099000149],[121.09514192300014,14.76865466900017],[121.09510664200013,14.768783995000035],[121.09511399788578,14.768873149311116],[121.0950658958147,14.768823976000924],[121.09505399673044,14.768822940585673],[121.09490424936921,14.768809920585836],[121.09463907388387,14.768786212005844],[121.09447809668326,14.768648585967195],[121.0943485955519,14.768492787929283],[121.09430942361564,14.768405785101452],[121.09427660366671,14.768294920724774]]]}}]}
